[{"OBJECT_NAME":"STARLINK-2545","OBJECT_ID":"2021-036P","EPOCH":"2026-03-09T07:26:59.011008","MEAN_MOTION":15.30209224,"ECCENTRICITY":0.00010799,"INCLINATION":53.1594,"RA_OF_ASC_NODE":77.4373,"ARG_OF_PERICENTER":83.2666,"MEAN_ANOMALY":276.8457,"EPHEMERIS_TYPE":0,"CLASSIFICATION_TYPE":"U","NORAD_CAT_ID":48289,"ELEMENT_SET_NO":999,"REV_AT_EPOCH":26834,"BSTAR":1.7143398e-5,"MEAN_MOTION_DOT":1.49e-6,"MEAN_MOTION_DDOT":0},{"OBJECT_NAME":"UTMN 2 (RS27S)","OBJECT_ID":"2023-091AP","EPOCH":"2026-03-09T23:09:07.917408","MEAN_MOTION":15.29495965,"ECCENTRICITY":0.00097379,"INCLINATION":97.5194,"RA_OF_ASC_NODE":134.949,"ARG_OF_PERICENTER":76.0788,"MEAN_ANOMALY":284.1534,"EPHEMERIS_TYPE":0,"CLASSIFICATION_TYPE":"U","NORAD_CAT_ID":57203,"ELEMENT_SET_NO":999,"REV_AT_EPOCH":14936,"BSTAR":0.00056135701,"MEAN_MOTION_DOT":0.00016013,"MEAN_MOTION_DDOT":0}]
